OBJECT_NAME,OBJECT_ID,EPOCH,MEAN_MOTION,ECCENTRICITY,INCLINATION,RA_OF_ASC_NODE,ARG_OF_PERICENTER,MEAN_ANOMALY,EPHEMERIS_TYPE,CLASSIFICATION_TYPE,NORAD_CAT_ID,ELEMENT_SET_NO,REV_AT_EPOCH,BSTAR,MEAN_MOTION_DOT,MEAN_MOTION_DDOT
TJS-7,2021-077A,2026-07-15T04:20:23.315424,1.00269209,.0003003,0.2858,263.9918,107.6799,246.9319,0,U,49115,999,982,0,-.132E-5,0
CHINASAT 9B,2021-080A,2026-07-14T19:50:13.415424,1.00268776,.00021375,0.0325,88.0153,58.6868,184.9323,0,U,49125,999,1792,0,-.321E-5,0
SHIJIAN-21 (SJ-21),2021-094A,2026-07-14T22:38:51.619200,1.00278005,.00516638,5.1767,61.0098,168.9735,170.4195,0,U,49330,999,563,0,-.359E-5,0
SES-17,2021-095A,2026-07-14T18:13:55.754112,1.00268806,.00007691,0.0240,48.7859,69.0430,21.1585,0,U,49332,999,1813,0,-.28E-5,0
SYRACUSE 4A,2021-095B,2026-07-15T03:19:15.567168,1.00269221,.0001543,0.0256,63.3719,41.9986,282.9471,0,U,49333,999,1822,0,0,0
QZS-1R (MICHIBIKI-1R),2021-096A,2026-07-14T13:49:51.633120,1.00245239,.0754906,37.5157,79.1769,272.2285,280.2291,0,U,49336,999,1728,0,-.304E-5,0
ZHONGXING-1D,2021-114A,2026-07-15T05:26:05.366400,1.00268325,.0000636,0.0553,233.8631,22.9356,247.9665,0,U,49505,999,1710,0,-.346E-5,0
STPSAT-6,2021-118A,2026-07-15T02:34:23.426112,1.00270076,.0000972,0.3908,85.0938,239.8563,254.8193,0,U,49817,999,1685,0,-.54E-6,0
EXPRESS AMU-7,2021-123A,2026-07-15T05:30:12.471264,1.00272794,.0000457,0.0382,264.6267,32.1100,223.8827,0,U,50001,999,1682,0,-.252E-5,0
EXPRESS AMU-3,2021-123B,2026-07-14T21:37:24.417120,1.00269937,.0000416,0.0148,3.1255,327.1226,29.7496,0,U,50002,999,730,0,0,0
TIANLIAN 2-02,2021-124A,2026-07-15T04:42:38.860704,1.00270604,.0001631,0.8712,85.6518,162.1179,286.8957,0,U,50005,999,1690,0,-.25E-6,0
TURKSAT 5B,2021-126A,2026-07-13T11:57:10.554912,1.00271883,.00024959,0.0700,338.4739,12.5122,161.6814,0,U,50212,999,1656,0,.142E-5,0
INMARSAT 6-F1,2021-128A,2026-07-15T03:53:38.699808,1.00270493,.000012,0.0151,347.1900,301.2453,146.7363,0,U,50319,999,1653,0,-.181E-5,0
SHIYAN-12 01 (SY-12 01),2021-129A,2026-07-13T17:04:05.088864,1.00050328,.0002604,3.7406,79.5526,284.7957,221.7076,0,U,50321,999,1676,0,.143E-5,0
SHIYAN-12 02 (SY-12 02),2021-129B,2026-07-13T18:00:47.805984,1.00477926,.0003036,3.7398,79.5521,70.3677,161.1938,0,U,50322,999,1676,0,-.367E-5,0
TJS-9,2021-135A,2026-07-15T05:28:05.173824,1.00272349,.0002162,0.0467,101.8310,327.9167,82.5946,0,U,50574,999,1671,0,-.308E-5,0
GOES 18,2022-021A,2026-07-14T23:01:46.817760,1.00270846,.00004,0.0194,126.7770,62.2107,312.2647,0,U,51850,999,687,0,.88E-6,0
ZHONGXING-6D,2022-038A,2026-07-13T20:12:48.756672,1.00272740,.00006039,0.0271,235.5038,296.7652,187.7170,0,U,52255,999,1569,0,-.359E-5,0
NILESAT 301,2022-061A,2026-07-15T03:04:17.001120,1.00269448,.0003512,0.0460,357.7449,82.2451,252.0777,0,U,52817,999,1501,0,-.67E-6,0
CMS-02 (GSAT-24),2022-067A,2026-07-14T08:40:35.152608,1.00269800,.00008603,0.0509,231.1001,121.8996,152.3598,0,U,52903,999,1488,0,-.171E-5,0
MEASAT 3D,2022-067B,2026-07-15T03:53:38.699808,1.00271291,.0000587,0.0446,311.5719,63.9036,67.4550,0,U,52904,999,1493,0,-.251E-5,0
SES-22,2022-071A,2026-07-15T03:18:31.162752,1.00271665,.0000831,0.0174,30.5009,77.5543,95.5351,0,U,52933,999,780,0,.95E-6,0
WFOV (USA 332),2022-073A,2026-07-15T00:15:00.590400,1.00267267,.0001507,3.7801,78.1750,215.1487,122.5583,0,U,52940,999,1464,0,-.374E-5,0
TIANLIAN 2-03,2022-078A,2026-07-14T03:12:09.361152,1.00273706,.00009262,0.7376,77.4695,4.6577,268.5483,0,U,53100,999,1481,0,.65E-6,0
SBIRS GEO-6 (USA 336),2022-092A,2026-07-14T17:05:21.401664,1.00270443,.00016359,3.2123,317.9428,154.5282,215.4373,0,U,53355,999,1451,0,-.296E-5,0
EUTELSAT KONNECT VHTS,2022-110A,2026-07-13T23:44:34.604160,1.00267750,.00026557,0.0579,98.5802,1.4940,190.6143,0,U,53765,999,710,0,.1E-6,0
ZHONGXING-1E,2022-112A,2026-07-15T03:53:38.700672,1.00270767,.0000885,0.0204,244.3784,31.7031,156.7561,0,U,53813,999,1412,0,0,0
SES-20,2022-123A,2026-07-14T21:33:40.610016,1.00269110,.000176,0.0178,66.8012,25.2949,60.9681,0,U,53960,999,1381,0,-.109E-5,0
SES-21,2022-123B,2026-07-14T00:49:05.916864,1.00270261,.0001181,0.0398,36.9714,72.5492,63.7350,0,U,53961,999,748,0,0,0
GALAXY 33 (G-33),2022-128A,2026-07-15T05:07:29.053344,1.00272268,.0001796,0.0134,35.3181,85.3018,116.3145,0,U,54026,999,1402,0,.69E-6,0
GALAXY 34 (G-34),2022-128B,2026-07-15T00:34:08.798016,1.00270740,.0001241,0.0143,36.8335,102.3316,33.2416,0,U,54027,999,1419,0,.5E-6,0
ANGOSAT 2,2022-131A,2026-07-15T04:55:30.797184,1.00271936,.0000141,0.0210,113.8582,139.9992,136.0701,0,U,54033,999,1375,0,.126E-5,0
