TJS-7                   
1 49115U 21077A   26196.18082541 -.00000132  00000+0  00000+0 0  9995
2 49115   0.2858 263.9918 0003003 107.6799 246.9319  1.00269209  9820
CHINASAT 9B             
1 49125U 21080A   26195.82654416 -.00000321  00000+0  00000+0 0  9996
2 49125   0.0325  88.0153 0002137  58.6868 184.9323  1.00268776 17928
SHIJIAN-21 (SJ-21)      
1 49330U 21094A   26195.94365300 -.00000359  00000+0  00000+0 0  9994
2 49330   5.1767  61.0098 0051663 168.9735 170.4195  1.00278005  5635
SES-17                  
1 49332U 21095A   26195.75967308 -.00000280  00000+0  00000+0 0  9995
2 49332   0.0240  48.7859 0000769  69.0430  21.1585  1.00268806 18130
SYRACUSE 4A             
1 49333U 21095B   26196.13837462  .00000000  00000+0  00000+0 0  9995
2 49333   0.0256  63.3719 0001543  41.9986 282.9471  1.00269221 18225
QZS-1R (MICHIBIKI-1R)   
1 49336U 21096A   26195.57629205 -.00000304  00000+0  00000+0 0  9998
2 49336  37.5157  79.1769 0754906 272.2285 280.2291  1.00245239 17281
ZHONGXING-1D            
1 49505U 21114A   26196.22645100 -.00000346  00000+0  00000+0 0  9998
2 49505   0.0553 233.8631 0000636  22.9356 247.9665  1.00268325 17101
STPSAT-6                
1 49817U 21118A   26196.10721558 -.00000054  00000+0  00000+0 0  9993
2 49817   0.3908  85.0938 0000972 239.8563 254.8193  1.00270076 16853
EXPRESS AMU-7           
1 50001U 21123A   26196.22931101 -.00000252  00000+0  00000+0 0  9996
2 50001   0.0382 264.6267 0000457  32.1100 223.8827  1.00272794 16828
EXPRESS AMU-3           
1 50002U 21123B   26195.90097705  .00000000  00000+0  00000+0 0  9994
2 50002   0.0148   3.1255 0000416 327.1226  29.7496  1.00269937  7306
TIANLIAN 2-02           
1 50005U 21124A   26196.19628311 -.00000025  00000+0  00000+0 0  9991
2 50005   0.8712  85.6518 0001631 162.1179 286.8957  1.00270604 16902
TURKSAT 5B              
1 50212U 21126A   26194.49803883  .00000142  00000+0  00000+0 0  9992
2 50212   0.0700 338.4739 0002495  12.5122 161.6814  1.00271883 16564
INMARSAT 6-F1           
1 50319U 21128A   26196.16225347 -.00000181  00000+0  00000+0 0  9995
2 50319   0.0151 347.1900 0000120 301.2453 146.7363  1.00270493 16533
SHIYAN-12 01 (SY-12 01) 
1 50321U 21129A   26194.71117001  .00000143  00000+0  00000+0 0  9992
2 50321   3.7406  79.5526 0002604 284.7957 221.7076  1.00050328 16765
SHIYAN-12 02 (SY-12 02) 
1 50322U 21129B   26194.75055331 -.00000367  00000+0  00000+0 0  9993
2 50322   3.7398  79.5521 0003036  70.3677 161.1938  1.00477926 16760
TJS-9                   
1 50574U 21135A   26196.22783766 -.00000308  00000+0  00000+0 0  9998
2 50574   0.0467 101.8310 0002162 327.9167  82.5946  1.00272349 16717
GOES 18                 
1 51850U 22021A   26195.95956965  .00000088  00000+0  00000+0 0  9997
2 51850   0.0194 126.7770 0000400  62.2107 312.2647  1.00270846  6871
ZHONGXING-6D            
1 52255U 22038A   26194.84223098 -.00000359  00000+0  00000+0 0  9998
2 52255   0.0271 235.5038 0000603 296.7652 187.7170  1.00272740 15698
NILESAT 301             
1 52817U 22061A   26196.12797455 -.00000067  00000+0  00000+0 0  9990
2 52817   0.0460 357.7449 0003512  82.2451 252.0777  1.00269448 15018
CMS-02 (GSAT-24)        
1 52903U 22067A   26195.36151797 -.00000171  00000+0  00000+0 0  9996
2 52903   0.0509 231.1001 0000860 121.8996 152.3598  1.00269800 14883
MEASAT 3D               
1 52904U 22067B   26196.16225347 -.00000251  00000+0  00000+0 0  9998
2 52904   0.0446 311.5719 0000587  63.9036  67.4550  1.00271291 14937
SES-22                  
1 52933U 22071A   26196.13786068  .00000095  00000+0  00000+0 0  9999
2 52933   0.0174  30.5009 0000831  77.5543  95.5351  1.00271665  7807
WFOV (USA 332)          
1 52940U 22073A   26196.01042350 -.00000374  00000+0  00000+0 0  9996
2 52940   3.7801  78.1750 0001507 215.1487 122.5583  1.00267267 14642
TIANLIAN 2-03           
1 53100U 22078A   26195.13344168  .00000065  00000+0  00000+0 0  9990
2 53100   0.7376  77.4695 0000926   4.6577 268.5483  1.00273706 14814
SBIRS GEO-6 (USA 336)   
1 53355U 22092A   26195.71205326 -.00000296  00000+0  00000+0 0  9991
2 53355   3.2123 317.9428 0001635 154.5282 215.4373  1.00270443 14517
EUTELSAT KONNECT VHTS   
1 53765U 22110A   26194.98928940  .00000010  00000+0  00000+0 0  9992
2 53765   0.0579  98.5802 0002655   1.4940 190.6143  1.00267750  7107
ZHONGXING-1E            
1 53813U 22112A   26196.16225348  .00000000  00000+0  00000+0 0  9991
2 53813   0.0204 244.3784 0000885  31.7031 156.7561  1.00270767 14125
SES-20                  
1 53960U 22123A   26195.89838669 -.00000109  00000+0  00000+0 0  9992
2 53960   0.0178  66.8012 0001760  25.2949  60.9681  1.00269110 13812
SES-21                  
1 53961U 22123B   26195.03409626  .00000000  00000+0  00000+0 0  9995
2 53961   0.0398  36.9714 0001181  72.5492  63.7350  1.00270261  7488
GALAXY 33 (G-33)        
1 54026U 22128A   26196.21353071  .00000069  00000+0  00000+0 0  9991
2 54026   0.0134  35.3181 0001796  85.3018 116.3145  1.00272268 14022
GALAXY 34 (G-34)        
1 54027U 22128B   26196.02371294  .00000050  00000+0  00000+0 0  9998
2 54027   0.0143  36.8335 0001241 102.3316  33.2416  1.00270740 14195
ANGOSAT 2               
1 54033U 22131A   26196.20521756  .00000126  00000+0  00000+0 0  9993
2 54033   0.0210 113.8582 0000141 139.9992 136.0701  1.00271936 13759
